JY1SAT (JO-97)          
1 43803U 18099AX  26068.68634132  .00017774  00000+0  60804-3 0  9996
2 43803  97.4249 131.3625 0004723 256.6795 103.3919 15.30302628398390
STARLINK-36127          
1 66935U 25286L   26068.21430695 -.00002306  00000+0 -65778-4 0  9993
2 66935  53.1615   0.6854 0000961 109.5307 250.5798 15.30197410 15346
